[{"OBJECT_NAME":"GOES 14","OBJECT_ID":"2009-033A","EPOCH":"2026-04-26T21:20:38.742720","MEAN_MOTION":1.00116667,"ECCENTRICITY":0.00017505,"INCLINATION":1.5596,"RA_OF_ASC_NODE":83.6273,"ARG_OF_PERICENTER":314.0551,"MEAN_ANOMALY":307.8984,"EPHEMERIS_TYPE":0,"CLASSIFICATION_TYPE":"U","NORAD_CAT_ID":35491,"ELEMENT_SET_NO":999,"REV_AT_EPOCH":607,"BSTAR":0,"MEAN_MOTION_DOT":-5.9e-7,"MEAN_MOTION_DDOT":0},{"OBJECT_NAME":"EWS-G2 (GOES 15)","OBJECT_ID":"2010-008A","EPOCH":"2026-04-26T23:04:29.732736","MEAN_MOTION":1.00272523,"ECCENTRICITY":0.00039837,"INCLINATION":1.1428,"RA_OF_ASC_NODE":83.7723,"ARG_OF_PERICENTER":23.7429,"MEAN_ANOMALY":156.8227,"EPHEMERIS_TYPE":0,"CLASSIFICATION_TYPE":"U","NORAD_CAT_ID":36411,"ELEMENT_SET_NO":999,"REV_AT_EPOCH":5912,"BSTAR":0,"MEAN_MOTION_DOT":1.2e-7,"MEAN_MOTION_DDOT":0},{"OBJECT_NAME":"GOES 16","OBJECT_ID":"2016-071A","EPOCH":"2026-04-26T21:37:33.381984","MEAN_MOTION":1.00271206,"ECCENTRICITY":0.00014998,"INCLINATION":0.213,"RA_OF_ASC_NODE":85.2891,"ARG_OF_PERICENTER":251.0284,"MEAN_ANOMALY":98.2535,"EPHEMERIS_TYPE":0,"CLASSIFICATION_TYPE":"U","NORAD_CAT_ID":41866,"ELEMENT_SET_NO":999,"REV_AT_EPOCH":3458,"BSTAR":0,"MEAN_MOTION_DOT":-1.02e-6,"MEAN_MOTION_DDOT":0},{"OBJECT_NAME":"GOES 17","OBJECT_ID":"2018-022A","EPOCH":"2026-04-26T21:41:55.463424","MEAN_MOTION":1.00271991,"ECCENTRICITY":6.678e-5,"INCLINATION":0.8081,"RA_OF_ASC_NODE":86.3988,"ARG_OF_PERICENTER":276.3071,"MEAN_ANOMALY":88.1847,"EPHEMERIS_TYPE":0,"CLASSIFICATION_TYPE":"U","NORAD_CAT_ID":43226,"ELEMENT_SET_NO":999,"REV_AT_EPOCH":2991,"BSTAR":0,"MEAN_MOTION_DOT":-1.93e-6,"MEAN_MOTION_DDOT":0},{"OBJECT_NAME":"GOES 18","OBJECT_ID":"2022-021A","EPOCH":"2026-04-26T18:03:01.177344","MEAN_MOTION":1.00272846,"ECCENTRICITY":5.124e-5,"INCLINATION":0.0454,"RA_OF_ASC_NODE":68.8293,"ARG_OF_PERICENTER":19.435,"MEAN_ANOMALY":260.2358,"EPHEMERIS_TYPE":0,"CLASSIFICATION_TYPE":"U","NORAD_CAT_ID":51850,"ELEMENT_SET_NO":999,"REV_AT_EPOCH":607,"BSTAR":0,"MEAN_MOTION_DOT":8.5e-7,"MEAN_MOTION_DDOT":0},{"OBJECT_NAME":"GOES 19","OBJECT_ID":"2024-119A","EPOCH":"2026-04-26T21:45:55.080000","MEAN_MOTION":1.00273156,"ECCENTRICITY":6.414e-5,"INCLINATION":0.0266,"RA_OF_ASC_NODE":67.964,"ARG_OF_PERICENTER":17.4109,"MEAN_ANOMALY":20.8049,"EPHEMERIS_TYPE":0,"CLASSIFICATION_TYPE":"U","NORAD_CAT_ID":60133,"ELEMENT_SET_NO":999,"REV_AT_EPOCH":645,"BSTAR":0,"MEAN_MOTION_DOT":-2.6e-6,"MEAN_MOTION_DDOT":0}]
